TISAT 1                 
1 36799U 10035E   26068.75703562  .00024554  00000+0  91005-3 0  9997
2 36799  98.0645   6.8512 0001343 159.3030 200.8262 15.27628633852505
STARLINK-32473          
1 62049U 24216T   26068.94308766  .00026357  00000+0  96341-3 0  9999
2 62049  42.9993 254.9523 0002395 276.5576  83.5003 15.27595792 72758
